[{"OBJECT_NAME":"YUNHAI-2 01B","OBJECT_ID":"2018-112B","EPOCH":"2026-03-09T18:01:16.468320","MEAN_MOTION":14.28967374,"ECCENTRICITY":0.00050306,"INCLINATION":50.0104,"RA_OF_ASC_NODE":169.9221,"ARG_OF_PERICENTER":231.5656,"MEAN_ANOMALY":128.4808,"EPHEMERIS_TYPE":0,"CLASSIFICATION_TYPE":"U","NORAD_CAT_ID":43910,"ELEMENT_SET_NO":999,"REV_AT_EPOCH":37602,"BSTAR":7.0397417e-5,"MEAN_MOTION_DOT":1.8e-7,"MEAN_MOTION_DDOT":0},{"OBJECT_NAME":"FENGYUN 1C DEB","OBJECT_ID":"1999-025DAU","EPOCH":"2026-03-08T08:05:21.933024","MEAN_MOTION":14.54151301,"ECCENTRICITY":0.01700435,"INCLINATION":98.1612,"RA_OF_ASC_NODE":106.3841,"ARG_OF_PERICENTER":42.2433,"MEAN_ANOMALY":319.172,"EPHEMERIS_TYPE":0,"CLASSIFICATION_TYPE":"U","NORAD_CAT_ID":32432,"ELEMENT_SET_NO":999,"REV_AT_EPOCH":71938,"BSTAR":0.0034695918,"MEAN_MOTION_DOT":0.00017783,"MEAN_MOTION_DDOT":0}]
